GLOBALSTAR M024         
1 25883U 99043A   25064.45737554 -.00000119  00000+0 -19223-2 0  9999
2 25883  51.9986 254.6761 0000586 305.0869  63.8131 11.10163511103340
GLOBALSTAR M027         
1 25884U 99043B   25064.40672123 -.00000068  00000+0 -15890-3 0  9995
2 25884  52.0249 329.8320 0021082 182.5827 177.4860 11.04371110129772
GLOBALSTAR M054         
1 25885U 99043C   25064.52264539 -.00000138  00000+0 -17056-2 0  9990
2 25885  52.0124 114.2674 0005627 358.8291 144.5777 11.39212767107232
GLOBALSTAR M053         
1 25886U 99043D   25064.38355301 -.00000076  00000+0 -22390-3 0  9992
2 25886  51.9990  55.9325 0003301 263.6200 245.8941 11.27663390107738
GLOBALSTAR M058         
1 25907U 99049A   25064.18210550 -.00000129  00000+0 -59848-3 0  9993
2 25907  51.9963  26.8937 0002345  71.2704 288.8385 11.93198363529123
GLOBALSTAR M050         
1 25908U 99049B   25064.43183583 -.00000010  00000+0  88700-3 0  9994
2 25908  52.0007  41.6531 0009034 183.3474 345.6339 12.07450161135656
GLOBALSTAR M033         
1 25909U 99049C   25064.57064319 -.00000122  00000+0 -29247-3 0  9991
2 25909  51.9904 280.2658 0014104  52.5436 307.6692 12.20286713155827
GLOBALSTAR M055         
1 25910U 99049D   25064.35469154 -.00000067  00000+0  22889-3 0  9997
2 25910  52.0021 296.6780 0006216 278.8259  81.1889 12.29422347155511
